*******************************************************************************
Ephemeris / WWW_USER Mon Mar 10 08:44:36 2025 Pasadena, USA      / Horizons    
*******************************************************************************
Target body name: (2018 PL28)                     {source: JPL#6}
Center body name: Earth (399)                     {source: DE441}
Center-site name: Mauna Kea
*******************************************************************************
Start time      : A.D. 2018-Nov-08 03:54:00.0000 UT      
Stop  time      : A.D. 2018-Nov-08 16:17:00.0000 UT      
Step-size       : 1 minutes
*******************************************************************************
Target pole/equ : undefined
Target radii    : undefined                                                    
Center geodetic : 204.5278, 19.8260847, 4.21024   {E-lon(deg),Lat(deg),Alt(km)}
Center cylindric: 204.5278, 6006.35451, 2151.0229 {E-lon(deg),Dxy(km),Dz(km)}
Center pole/equ : ITRF93                          {East-longitude positive}
Center radii    : 6378.137, 6378.137, 6356.752 km {Equator_a, b, pole_c}       
Target primary  : Sun
Vis. interferer : MOON (R_eq= 1737.400) km        {source: DE441}
Rel. light bend : Sun                             {source: DE441}
Rel. lght bnd GM: 1.3271E+11 km^3/s^2                                          
Small-body perts: Yes                             {source: SB441-N16}
Atmos refraction: NO (AIRLESS)
RA format       : HMS
Time format     : CAL 
Calendar mode   : Mixed Julian/Gregorian
RTS-only print  : NO       
EOP file        : eop.250307.p250603                                           
EOP coverage    : DATA-BASED 1962-JAN-20 TO 2025-MAR-07. PREDICTS-> 2025-JUN-02
Units conversion: 1 au= 149597870.700 km, c= 299792.458 km/s, 1 day= 86400.0 s 
Table cut-offs 1: Elevation (-90.0deg=NO ),Airmass (>38.000=NO), Daylight (YES)
Table cut-offs 2: Solar elongation (  0.0,180.0=NO ),Local Hour Angle( 0.0=NO )
Table cut-offs 3: RA/DEC angular rate (     0.0=NO )                           
*******************************************************************************
Initial IAU76/J2000 heliocentric ecliptic osculating elements (au, days, deg.):
  EPOCH=  2457854.5 ! 2017-Apr-11.00 (TDB)         Residual RMS= .19092        
   EC= .8623380004677549   QR= 2.686075926237564   TP= 2457951.5509793968      
   OM= 350.7805373480467   W=  275.0956674869335   IN= 74.19591911353062       
  Equivalent ICRF heliocentric cartesian coordinates (au, au/d):
   X=-1.230595634603956E+00  Y= 5.216934222523280E-01  Z=-2.512561684350396E+00
  VX= 1.337943797263742E-02 VY=-1.672601025687851E-03 VZ=-3.313586071138778E-03
Asteroid physical parameters (km, seconds, rotational period in hours):        
   GM= n.a.                RAD= n.a.               ROTPER= n.a.                
   H= 14.87                G= .150                 B-V= n.a.                   
                           ALBEDO= n.a.            STYP= n.a.                  
*******************************************************************************
 Date__(UT)__HR:MN     R.A._________(ICRF)_________DEC
******************************************************
$$SOE
 2018-Nov-08 05:57     22 44 59.921299 -01 20 34.34723
 2018-Nov-08 05:58     22 44 59.907497 -01 20 34.23561
 2018-Nov-08 05:59  t  22 44 59.893694 -01 20 34.12398
 2018-Nov-08 06:00     22 44 59.879892 -01 20 34.01236
 2018-Nov-08 06:01     22 44 59.866091 -01 20 33.90073
 2018-Nov-08 06:02     22 44 59.852290 -01 20 33.78911
 2018-Nov-08 06:03     22 44 59.838490 -01 20 33.67748
 2018-Nov-08 06:04     22 44 59.824690 -01 20 33.56585
 2018-Nov-08 06:05     22 44 59.810891 -01 20 33.45421
 2018-Nov-08 06:06     22 44 59.797092 -01 20 33.34258
 2018-Nov-08 06:07     22 44 59.783294 -01 20 33.23094
 2018-Nov-08 06:08     22 44 59.769496 -01 20 33.11930
 2018-Nov-08 06:09     22 44 59.755699 -01 20 33.00766
 2018-Nov-08 06:10     22 44 59.741902 -01 20 32.89601
 2018-Nov-08 06:11     22 44 59.728106 -01 20 32.78437
 2018-Nov-08 06:12     22 44 59.714311 -01 20 32.67272
 2018-Nov-08 06:13     22 44 59.700516 -01 20 32.56107
 2018-Nov-08 06:14     22 44 59.686722 -01 20 32.44942
 2018-Nov-08 06:15     22 44 59.672928 -01 20 32.33777
 2018-Nov-08 06:16     22 44 59.659136 -01 20 32.22611
 2018-Nov-08 06:17     22 44 59.645343 -01 20 32.11446
 2018-Nov-08 06:18     22 44 59.631552 -01 20 32.00280
 2018-Nov-08 06:19     22 44 59.617761 -01 20 31.89114
 2018-Nov-08 06:20     22 44 59.603971 -01 20 31.77947
 2018-Nov-08 06:21     22 44 59.590181 -01 20 31.66781
 2018-Nov-08 06:22     22 44 59.576392 -01 20 31.55614
 2018-Nov-08 06:23     22 44 59.562604 -01 20 31.44447
 2018-Nov-08 06:24     22 44 59.548816 -01 20 31.33280
 2018-Nov-08 06:25     22 44 59.535030 -01 20 31.22113
 2018-Nov-08 06:26     22 44 59.521244 -01 20 31.10945
 2018-Nov-08 06:27     22 44 59.507459 -01 20 30.99778
 2018-Nov-08 06:28     22 44 59.493674 -01 20 30.88610
 2018-Nov-08 06:29     22 44 59.479890 -01 20 30.77442
 2018-Nov-08 06:30     22 44 59.466107 -01 20 30.66274
 2018-Nov-08 06:31     22 44 59.452325 -01 20 30.55105
 2018-Nov-08 06:32     22 44 59.438544 -01 20 30.43937
 2018-Nov-08 06:33     22 44 59.424763 -01 20 30.32768
 2018-Nov-08 06:34     22 44 59.410984 -01 20 30.21599
 2018-Nov-08 06:35     22 44 59.397205 -01 20 30.10430
 2018-Nov-08 06:36     22 44 59.383427 -01 20 29.99260
 2018-Nov-08 06:37     22 44 59.369650 -01 20 29.88091
 2018-Nov-08 06:38     22 44 59.355873 -01 20 29.76921
 2018-Nov-08 06:39     22 44 59.342098 -01 20 29.65751
 2018-Nov-08 06:40     22 44 59.328323 -01 20 29.54581
 2018-Nov-08 06:41     22 44 59.314549 -01 20 29.43410
 2018-Nov-08 06:42     22 44 59.300777 -01 20 29.32240
 2018-Nov-08 06:43     22 44 59.287005 -01 20 29.21069
 2018-Nov-08 06:44     22 44 59.273234 -01 20 29.09898
 2018-Nov-08 06:45     22 44 59.259464 -01 20 28.98727
 2018-Nov-08 06:46     22 44 59.245695 -01 20 28.87555
 2018-Nov-08 06:47     22 44 59.231926 -01 20 28.76384
 2018-Nov-08 06:48     22 44 59.218159 -01 20 28.65212
 2018-Nov-08 06:49     22 44 59.204393 -01 20 28.54040
 2018-Nov-08 06:50     22 44 59.190628 -01 20 28.42868
 2018-Nov-08 06:51     22 44 59.176863 -01 20 28.31696
 2018-Nov-08 06:52     22 44 59.163100 -01 20 28.20523
 2018-Nov-08 06:53     22 44 59.149338 -01 20 28.09350
 2018-Nov-08 06:54     22 44 59.135577 -01 20 27.98177
 2018-Nov-08 06:55     22 44 59.121816 -01 20 27.87004
 2018-Nov-08 06:56     22 44 59.108057 -01 20 27.75831
 2018-Nov-08 06:57     22 44 59.094299 -01 20 27.64658
 2018-Nov-08 06:58     22 44 59.080542 -01 20 27.53484
 2018-Nov-08 06:59     22 44 59.066786 -01 20 27.42310
 2018-Nov-08 07:00     22 44 59.053031 -01 20 27.31136
 2018-Nov-08 07:01     22 44 59.039277 -01 20 27.19962
 2018-Nov-08 07:02     22 44 59.025525 -01 20 27.08787
 2018-Nov-08 07:03     22 44 59.011773 -01 20 26.97613
 2018-Nov-08 07:04     22 44 58.998023 -01 20 26.86438
 2018-Nov-08 07:05     22 44 58.984273 -01 20 26.75263
 2018-Nov-08 07:06     22 44 58.970525 -01 20 26.64088
 2018-Nov-08 07:07     22 44 58.956778 -01 20 26.52912
 2018-Nov-08 07:08     22 44 58.943032 -01 20 26.41737
 2018-Nov-08 07:09     22 44 58.929287 -01 20 26.30561
 2018-Nov-08 07:10     22 44 58.915543 -01 20 26.19385
 2018-Nov-08 07:11     22 44 58.901801 -01 20 26.08209
 2018-Nov-08 07:12     22 44 58.888060 -01 20 25.97032
 2018-Nov-08 07:13     22 44 58.874320 -01 20 25.85856
 2018-Nov-08 07:14     22 44 58.860581 -01 20 25.74679
 2018-Nov-08 07:15     22 44 58.846843 -01 20 25.63502
 2018-Nov-08 07:16     22 44 58.833107 -01 20 25.52325
 2018-Nov-08 07:17     22 44 58.819372 -01 20 25.41148
 2018-Nov-08 07:18     22 44 58.805638 -01 20 25.29970
 2018-Nov-08 07:19     22 44 58.791906 -01 20 25.18792
 2018-Nov-08 07:20     22 44 58.778174 -01 20 25.07614
 2018-Nov-08 07:21     22 44 58.764444 -01 20 24.96436
 2018-Nov-08 07:22     22 44 58.750716 -01 20 24.85258
 2018-Nov-08 07:23     22 44 58.736988 -01 20 24.74080
 2018-Nov-08 07:24     22 44 58.723262 -01 20 24.62901
 2018-Nov-08 07:25     22 44 58.709537 -01 20 24.51722
 2018-Nov-08 07:26     22 44 58.695814 -01 20 24.40543
 2018-Nov-08 07:27     22 44 58.682092 -01 20 24.29364
 2018-Nov-08 07:28     22 44 58.668371 -01 20 24.18185
 2018-Nov-08 07:29     22 44 58.654651 -01 20 24.07005
 2018-Nov-08 07:30     22 44 58.640933 -01 20 23.95825
 2018-Nov-08 07:31     22 44 58.627217 -01 20 23.84645
 2018-Nov-08 07:32     22 44 58.613501 -01 20 23.73465
 2018-Nov-08 07:33     22 44 58.599788 -01 20 23.62285
 2018-Nov-08 07:34     22 44 58.586075 -01 20 23.51104
 2018-Nov-08 07:35     22 44 58.572364 -01 20 23.39923
 2018-Nov-08 07:36     22 44 58.558654 -01 20 23.28742
 2018-Nov-08 07:37     22 44 58.544946 -01 20 23.17561
 2018-Nov-08 07:38     22 44 58.531239 -01 20 23.06380
 2018-Nov-08 07:39     22 44 58.517534 -01 20 22.95199
 2018-Nov-08 07:40     22 44 58.503830 -01 20 22.84017
 2018-Nov-08 07:41     22 44 58.490128 -01 20 22.72835
 2018-Nov-08 07:42     22 44 58.476427 -01 20 22.61653
 2018-Nov-08 07:43     22 44 58.462727 -01 20 22.50471
 2018-Nov-08 07:44     22 44 58.449029 -01 20 22.39288
 2018-Nov-08 07:45     22 44 58.435333 -01 20 22.28106
 2018-Nov-08 07:46     22 44 58.421638 -01 20 22.16923
 2018-Nov-08 07:47     22 44 58.407945 -01 20 22.05740
 2018-Nov-08 07:48     22 44 58.394253 -01 20 21.94557
 2018-Nov-08 07:49     22 44 58.380563 -01 20 21.83374
 2018-Nov-08 07:50     22 44 58.366874 -01 20 21.72190
 2018-Nov-08 07:51     22 44 58.353187 -01 20 21.61006
 2018-Nov-08 07:52     22 44 58.339501 -01 20 21.49822
 2018-Nov-08 07:53     22 44 58.325817 -01 20 21.38638
 2018-Nov-08 07:54     22 44 58.312135 -01 20 21.27454
 2018-Nov-08 07:55     22 44 58.298454 -01 20 21.16270
 2018-Nov-08 07:56     22 44 58.284775 -01 20 21.05085
 2018-Nov-08 07:57     22 44 58.271097 -01 20 20.93900
 2018-Nov-08 07:58     22 44 58.257421 -01 20 20.82715
 2018-Nov-08 07:59     22 44 58.243746 -01 20 20.71530
